1 25544U 98067A   24356.38462161  .00004794  00000-0  89439-4 0  9992
2 25544  51.6396 107.8950 0008087   2.3558  76.4872 15.50788318487580
1 25544U 98067A   24356.04297454  .00014343  00000-0  25158-3 0  9994
2 25544  51.6395 109.5832 0007961   4.5274 325.6983 15.50785250487524
1 25544U 98067A   24355.54896247  .00015498  00000-0  27129-3 0  9995
2 25544  51.6402 112.0335 0007683   2.7554  87.6931 15.50775670487457
1 25544U 98067A   24354.84975824  .00030980  00000-0  53354-3 0  9998
2 25544  51.6394 115.5056 0007872 359.2285 145.1603 15.50764621487344
1 25544U 98067A   24354.64423288  .00013657  00000-0  24028-3 0  9996
2 25544  51.6381 116.5231 0008453 355.6249  80.6014 15.50742715487318
1 25544U 98067A   24354.05061611  .00014501  00000-0  25479-3 0  9999
2 25544  51.6382 119.4710 0007812 356.7767   3.3171 15.50727578487224
1 25544U 98067A   24353.85728572  .00014581  00000-0  25619-3 0  9996
2 25544  51.6381 120.4297 0007817 356.1308   3.9620 15.50722470487192
1 25544U 98067A   24353.11480821  .00016510  00000-0  28923-3 0  9992
2 25544  51.6386 124.1069 0007476 354.2197 178.2061 15.50699795487076
1 25544U 98067A   24352.91684517  .00016472  00000-0  28866-3 0  9990
2 25544  51.6386 125.0885 0007506 353.4814 153.0835 15.50692977487045
1 25544U 98067A   24352.72120442  .00016275  00000-0  28537-3 0  9997
2 25544  51.6382 126.0578 0007520 352.4960 141.1840 15.50685495487016
1 25544U 98067A   24351.88382084  .00015679  00000-0  27553-3 0  9999
2 25544  51.6384 130.2114 0007464 350.2255 145.7300 15.50654979486889
1 25544U 98067A   24351.55954956  .00015485  00000-0  27234-3 0  9997
2 25544  51.6381 131.8180 0007521 349.3203 135.2434 15.50643617486836
