[
    {
        "OBJECT_NAME": "ISS (ZARYA)",
        "OBJECT_ID": "1998-067A",
        "EPOCH": "2024-12-16T13:25:45.081984",
        "MEAN_MOTION": 15.50643617,
        "ECCENTRICITY": 0.0007521,
        "INCLINATION": 51.6381,
        "RA_OF_ASC_NODE": 131.818,
        "ARG_OF_PERICENTER": 349.3203,
        "MEAN_ANOMALY": 135.2434,
        "EPHEMERIS_TYPE": 0,
        "CLASSIFICATION_TYPE": "U",
        "NORAD_CAT_ID": 25544,
        "ELEMENT_SET_NO": 999,
        "REV_AT_EPOCH": 48683,
        "BSTAR": 0.00027234,
        "MEAN_MOTION_DOT": 0.00015485,
        "MEAN_MOTION_DDOT": 0,
        "date_fetched": "2024-12-16T19:13:17.104752Z"
    },
    {
        "OBJECT_NAME": "ISS (ZARYA)",
        "OBJECT_ID": "1998-067A",
        "EPOCH": "2024-12-16T21:12:42.120576",
        "MEAN_MOTION": 15.50654979,
        "ECCENTRICITY": 0.0007464,
        "INCLINATION": 51.6384,
        "RA_OF_ASC_NODE": 130.2114,
        "ARG_OF_PERICENTER": 350.2255,
        "MEAN_ANOMALY": 145.73,
        "EPHEMERIS_TYPE": 0,
        "CLASSIFICATION_TYPE": "U",
        "NORAD_CAT_ID": 25544,
        "ELEMENT_SET_NO": 999,
        "REV_AT_EPOCH": 48688,
        "BSTAR": 0.00027553,
        "MEAN_MOTION_DOT": 0.00015679,
        "MEAN_MOTION_DDOT": 0,
        "date_fetched": "2024-12-17T02:25:11.960707Z"
    },
    {
        "OBJECT_NAME": "ISS (ZARYA)",
        "OBJECT_ID": "1998-067A",
        "EPOCH": "2024-12-17T17:18:32.061888",
        "MEAN_MOTION": 15.50685495,
        "ECCENTRICITY": 0.000752,
        "INCLINATION": 51.6382,
        "RA_OF_ASC_NODE": 126.0578,
        "ARG_OF_PERICENTER": 352.496,
        "MEAN_ANOMALY": 141.184,
        "EPHEMERIS_TYPE": 0,
        "CLASSIFICATION_TYPE": "U",
        "NORAD_CAT_ID": 25544,
        "ELEMENT_SET_NO": 999,
        "REV_AT_EPOCH": 48701,
        "BSTAR": 0.00028537,
        "MEAN_MOTION_DOT": 0.00016275,
        "MEAN_MOTION_DDOT": 0,
        "date_fetched": "2024-12-17T19:13:21.348541Z"
    },
    {
        "OBJECT_NAME": "ISS (ZARYA)",
        "OBJECT_ID": "1998-067A",
        "EPOCH": "2024-12-17T22:00:15.422688",
        "MEAN_MOTION": 15.50692977,
        "ECCENTRICITY": 0.0007506,
        "INCLINATION": 51.6386,
        "RA_OF_ASC_NODE": 125.0885,
        "ARG_OF_PERICENTER": 353.4814,
        "MEAN_ANOMALY": 153.0835,
        "EPHEMERIS_TYPE": 0,
        "CLASSIFICATION_TYPE": "U",
        "NORAD_CAT_ID": 25544,
        "ELEMENT_SET_NO": 999,
        "REV_AT_EPOCH": 48704,
        "BSTAR": 0.00028866,
        "MEAN_MOTION_DOT": 0.00016472,
        "MEAN_MOTION_DDOT": 0,
        "date_fetched": "2024-12-18T07:15:02.884670Z"
    },
    {
        "OBJECT_NAME": "ISS (ZARYA)",
        "OBJECT_ID": "1998-067A",
        "EPOCH": "2024-12-18T02:45:19.429344",
        "MEAN_MOTION": 15.50699795,
        "ECCENTRICITY": 0.0007476,
        "INCLINATION": 51.6386,
        "RA_OF_ASC_NODE": 124.1069,
        "ARG_OF_PERICENTER": 354.2197,
        "MEAN_ANOMALY": 178.2061,
        "EPHEMERIS_TYPE": 0,
        "CLASSIFICATION_TYPE": "U",
        "NORAD_CAT_ID": 25544,
        "ELEMENT_SET_NO": 999,
        "REV_AT_EPOCH": 48707,
        "BSTAR": 0.00028923,
        "MEAN_MOTION_DOT": 0.0001651,
        "MEAN_MOTION_DDOT": 0,
        "date_fetched": "2024-12-18T13:24:05.280270Z"
    },
    {
        "OBJECT_NAME": "ISS (ZARYA)",
        "OBJECT_ID": "1998-067A",
        "EPOCH": "2024-12-18T20:34:29.486208",
        "MEAN_MOTION": 15.5072247,
        "ECCENTRICITY": 0.0007817,
        "INCLINATION": 51.6381,
        "RA_OF_ASC_NODE": 120.4297,
        "ARG_OF_PERICENTER": 356.1308,
        "MEAN_ANOMALY": 3.962,
        "EPHEMERIS_TYPE": 0,
        "CLASSIFICATION_TYPE": "U",
        "NORAD_CAT_ID": 25544,
        "ELEMENT_SET_NO": 999,
        "REV_AT_EPOCH": 48719,
        "BSTAR": 0.00025619,
        "MEAN_MOTION_DOT": 0.00014581,
        "MEAN_MOTION_DDOT": 0,
        "date_fetched": "2024-12-19T02:21:38.768545Z"
    },
    {
        "OBJECT_NAME": "ISS (ZARYA)",
        "OBJECT_ID": "1998-067A",
        "EPOCH": "2024-12-19T01:12:53.231904",
        "MEAN_MOTION": 15.50727578,
        "ECCENTRICITY": 0.0007812,
        "INCLINATION": 51.6382,
        "RA_OF_ASC_NODE": 119.471,
        "ARG_OF_PERICENTER": 356.7767,
        "MEAN_ANOMALY": 3.3171,
        "EPHEMERIS_TYPE": 0,
        "CLASSIFICATION_TYPE": "U",
        "NORAD_CAT_ID": 25544,
        "ELEMENT_SET_NO": 999,
        "REV_AT_EPOCH": 48722,
        "BSTAR": 0.00025479,
        "MEAN_MOTION_DOT": 0.00014501,
        "MEAN_MOTION_DDOT": 0,
        "date_fetched": "2024-12-19T13:24:11.109745Z"
    },
    {
        "OBJECT_NAME": "ISS (ZARYA)",
        "OBJECT_ID": "1998-067A",
        "EPOCH": "2024-12-19T15:27:41.720832",
        "MEAN_MOTION": 15.50742715,
        "ECCENTRICITY": 0.0008453,
        "INCLINATION": 51.6381,
        "RA_OF_ASC_NODE": 116.5231,
        "ARG_OF_PERICENTER": 355.6249,
        "MEAN_ANOMALY": 80.6014,
        "EPHEMERIS_TYPE": 0,
        "CLASSIFICATION_TYPE": "U",
        "NORAD_CAT_ID": 25544,
        "ELEMENT_SET_NO": 999,
        "REV_AT_EPOCH": 48731,
        "BSTAR": 0.00024028,
        "MEAN_MOTION_DOT": 0.00013657,
        "MEAN_MOTION_DDOT": 0,
        "date_fetched": "2024-12-19T19:12:00.065898Z"
    },
    {
        "OBJECT_NAME": "ISS (ZARYA)",
        "OBJECT_ID": "1998-067A",
        "EPOCH": "2024-12-19T20:23:39.111936",
        "MEAN_MOTION": 15.50764621,
        "ECCENTRICITY": 0.0007872,
        "INCLINATION": 51.6394,
        "RA_OF_ASC_NODE": 115.5056,
        "ARG_OF_PERICENTER": 359.2285,
        "MEAN_ANOMALY": 145.1603,
        "EPHEMERIS_TYPE": 0,
        "CLASSIFICATION_TYPE": "U",
        "NORAD_CAT_ID": 25544,
        "ELEMENT_SET_NO": 999,
        "REV_AT_EPOCH": 48734,
        "BSTAR": 0.00053354,
        "MEAN_MOTION_DOT": 0.0003098,
        "MEAN_MOTION_DDOT": 0,
        "date_fetched": "2024-12-20T02:15:36.179019Z"
    },
    {
        "OBJECT_NAME": "ISS (ZARYA)",
        "OBJECT_ID": "1998-067A",
        "EPOCH": "2024-12-20T13:10:30.357408",
        "MEAN_MOTION": 15.5077567,
        "ECCENTRICITY": 0.0007683,
        "INCLINATION": 51.6402,
        "RA_OF_ASC_NODE": 112.0335,
        "ARG_OF_PERICENTER": 2.7554,
        "MEAN_ANOMALY": 87.6931,
        "EPHEMERIS_TYPE": 0,
        "CLASSIFICATION_TYPE": "U",
        "NORAD_CAT_ID": 25544,
        "ELEMENT_SET_NO": 999,
        "REV_AT_EPOCH": 48745,
        "BSTAR": 0.00027129,
        "MEAN_MOTION_DOT": 0.00015498,
        "MEAN_MOTION_DDOT": 0,
        "date_fetched": "2024-12-20T19:11:36.358582Z"
    },
    {
        "OBJECT_NAME": "ISS (ZARYA)",
        "OBJECT_ID": "1998-067A",
        "EPOCH": "2024-12-21T01:01:53.000256",
        "MEAN_MOTION": 15.5078525,
        "ECCENTRICITY": 0.0007961,
        "INCLINATION": 51.6395,
        "RA_OF_ASC_NODE": 109.5832,
        "ARG_OF_PERICENTER": 4.5274,
        "MEAN_ANOMALY": 325.6983,
        "EPHEMERIS_TYPE": 0,
        "CLASSIFICATION_TYPE": "U",
        "NORAD_CAT_ID": 25544,
        "ELEMENT_SET_NO": 999,
        "REV_AT_EPOCH": 48752,
        "BSTAR": 0.00025158,
        "MEAN_MOTION_DOT": 0.00014343,
        "MEAN_MOTION_DDOT": 0,
        "date_fetched": "2024-12-21T07:12:45.355291Z"
    },
    {
        "OBJECT_NAME": "ISS (ZARYA)",
        "OBJECT_ID": "1998-067A",
        "EPOCH": "2024-12-21T09:13:51.307104",
        "MEAN_MOTION": 15.50788318,
        "ECCENTRICITY": 0.0008087,
        "INCLINATION": 51.6396,
        "RA_OF_ASC_NODE": 107.895,
        "ARG_OF_PERICENTER": 2.3558,
        "MEAN_ANOMALY": 76.4872,
        "EPHEMERIS_TYPE": 0,
        "CLASSIFICATION_TYPE": "U",
        "NORAD_CAT_ID": 25544,
        "ELEMENT_SET_NO": 999,
        "REV_AT_EPOCH": 48758,
        "BSTAR": 8.9439e-05,
        "MEAN_MOTION_DOT": 4.794e-05,
        "MEAN_MOTION_DDOT": 0,
        "date_fetched": "2024-12-21T13:16:56.515066Z"
    }
]